{"type": "FeatureCollection", "features": [ {"type": "Feature", "properties": {"norad_id": 29769, "name": "FENGYUN 1C DEB", "group": "fengyun-1c-debris", "lat": -38.63287704515893, "lon": 58.21760579171684, "alt_km": 912.4065442881056, "timestamp": "2025-12-19T10:50:01.472165+00:00", "meta": {"OBJECT_NAME": "FENGYUN 1C DEB", "OBJECT_ID": "1999-025BK", "EPOCH": "2025-12-18T16:20:04.182144", "MEAN_MOTION": 14.13559199, "ECCENTRICITY": 0.00933933, "INCLINATION": 99.106, "RA_OF_ASC_NODE": 50.0685, "ARG_OF_PERICENTER": 113.9434, "MEAN_ANOMALY": 247.1553, "EPHEMERIS_TYPE": 0, "CLASSIFICATION_TYPE": "U", "NORAD_CAT_ID": 29769, "ELEMENT_SET_NO": 999, "REV_AT_EPOCH": 96765, "BSTAR": 0.001084754, "MEAN_MOTION_DOT": 2.086e-05, "MEAN_MOTION_DDOT": 0}, "tle": {"line1": "1 29769U 99025BK  25352.68060396  .00002086  00000+0  10848-2 0  9991", "line2": "2 29769  99.1060  50.0685 0093393 113.9434 247.1553 14.13559199967653"}}, "geometry": {"type": "Point", "coordinates": [58.21760579171684, -38.63287704515893]}}, {"type": "Feature", "properties": {"norad_id": 29770, "name": "FENGYUN 1C DEB", "group": "fengyun-1c-debris", "lat": -80.65132662314763, "lon": 177.93534194373535, "alt_km": 788.0690914779798, "timestamp": "2025-12-19T10:50:01.472176+00:00", "meta": {"OBJECT_NAME": "FENGYUN 1C DEB", "OBJECT_ID": "1999-025BL", "EPOCH": "2025-12-18T17:17:31.518816", "MEAN_MOTION": 14.20150922, "ECCENTRICITY": 0.00633395, "INCLINATION": 98.8466, "RA_OF_ASC_NODE": 68.2912, "ARG_OF_PERICENTER": 254.0254, "MEAN_ANOMALY": 238.0855, "EPHEMERIS_TYPE": 0, "CLASSIFICATION_TYPE": "U", "NORAD_CAT_ID": 29770, "ELEMENT_SET_NO": 999, "REV_AT_EPOCH": 97171, "BSTAR": 0.0010917695, "MEAN_MOTION_DOT": 2.331e-05, "MEAN_MOTION_DDOT": 0}, "tle": {"line1": "1 29770U 99025BL  25352.72050369  .00002331  00000+0  10918-2 0  9998", "line2": "2 29770  98.8466  68.2912 0063339 254.0254 238.0855 14.20150922971714"}}, "geometry": {"type": "Point", "coordinates": [177.93534194373535, -80.65132662314763]}}, {"type": "Feature", "properties": {"norad_id": 29772, "name": "FENGYUN 1C DEB", "group": "fengyun-1c-debris", "lat": 42.51707761749635, "lon": 29.903972103184653, "alt_km": 948.7350498941405, "timestamp": "2025-12-19T10:50:01.472186+00:00", "meta": {"OBJECT_NAME": "FENGYUN 1C DEB", "OBJECT_ID": "1999-025BN", "EPOCH": "2025-12-17T20:35:52.099296", "MEAN_MOTION": 14.03229234, "ECCENTRICITY": 0.01377936, "INCLINATION": 98.3866, "RA_OF_ASC_NODE": 200.6611, "ARG_OF_PERICENTER": 276.0163, "MEAN_ANOMALY": 98.373, "EPHEMERIS_TYPE": 0, "CLASSIFICATION_TYPE": "U", "NORAD_CAT_ID": 29772, "ELEMENT_SET_NO": 999, "REV_AT_EPOCH": 96327, "BSTAR": 0.00087765197, "MEAN_MOTION_DOT": 1.448e-05, "MEAN_MOTION_DDOT": 0}, "tle": {"line1": "1 29772U 99025BN  25351.85824189  .00001448  00000+0  87765-3 0  9995", "line2": "2 29772  98.3866 200.6611 0137793 276.0163  98.3730 14.03229234963277"}}, "geometry": {"type": "Point", "coordinates": [29.903972103184653, 42.51707761749635]}}, {"type": "Feature", "properties": {"norad_id": 29773, "name": "FENGYUN 1C DEB", "group": "fengyun-1c-debris", "lat": 52.487979194618624, "lon": 135.34592145012368, "alt_km": 821.2457446122244, "timestamp": "2025-12-19T10:50:01.472196+00:00", "meta": {"OBJECT_NAME": "FENGYUN 1C DEB", "OBJECT_ID": "1999-025BP", "EPOCH": "2025-12-18T16:08:57.085152", "MEAN_MOTION": 14.27580936, "ECCENTRICITY": 0.00464058, "INCLINATION": 98.9875, "RA_OF_ASC_NODE": 146.4432, "ARG_OF_PERICENTER": 273.2603, "MEAN_ANOMALY": 101.1, "EPHEMERIS_TYPE": 0, "CLASSIFICATION_TYPE": "U", "NORAD_CAT_ID": 29773, "ELEMENT_SET_NO": 999, "REV_AT_EPOCH": 98282, "BSTAR": 0.00029427504, "MEAN_MOTION_DOT": 6.85e-06, "MEAN_MOTION_DDOT": 0}, "tle": {"line1": "1 29773U 99025BP  25352.67288293  .00000685  00000+0  29428-3 0  9991", "line2": "2 29773  98.9875 146.4432 0046405 273.2603 101.1000 14.27580936982829"}}, "geometry": {"type": "Point", "coordinates": [135.34592145012368, 52.487979194618624]}}, {"type": "Feature", "properties": {"norad_id": 29774, "name": "FENGYUN 1C DEB", "group": "fengyun-1c-debris", "lat": -78.72372797285094, "lon": 60.68184353532845, "alt_km": 857.8209441011459, "timestamp": "2025-12-19T10:50:01.472207+00:00", "meta": {"OBJECT_NAME": "FENGYUN 1C DEB", "OBJECT_ID": "1999-025BQ", "EPOCH": "2025-12-18T20:24:38.970720", "MEAN_MOTION": 14.22737182, "ECCENTRICITY": 0.00512741, "INCLINATION": 99.077, "RA_OF_ASC_NODE": 293.3625, "ARG_OF_PERICENTER": 106.0612, "MEAN_ANOMALY": 320.717, "EPHEMERIS_TYPE": 0, "CLASSIFICATION_TYPE": "U", "NORAD_CAT_ID": 29774, "ELEMENT_SET_NO": 999, "REV_AT_EPOCH": 98162, "BSTAR": 0.00013511323, "MEAN_MOTION_DOT": 2.6e-06, "MEAN_MOTION_DDOT": 0}, "tle": {"line1": "1 29774U 99025BQ  25352.85045105  .00000260  00000+0  13511-3 0  9990", "line2": "2 29774  99.0770 293.3625 0051274 106.0612 320.7170 14.22737182981621"}}, "geometry": {"type": "Point", "coordinates": [60.68184353532845, -78.72372797285094]}}, {"type": "Feature", "properties": {"norad_id": 29776, "name": "FENGYUN 1C DEB", "group": "fengyun-1c-debris", "lat": 30.892547252355207, "lon": -154.68876552896725, "alt_km": 868.8069664053783, "timestamp": "2025-12-19T10:50:01.472218+00:00", "meta": {"OBJECT_NAME": "FENGYUN 1C DEB", "OBJECT_ID": "1999-025BS", "EPOCH": "2025-12-18T14:15:12.909024", "MEAN_MOTION": 14.07778995, "ECCENTRICITY": 0.00228634, "INCLINATION": 98.7706, "RA_OF_ASC_NODE": 19.1787, "ARG_OF_PERICENTER": 253.5993, "MEAN_ANOMALY": 231.831, "EPHEMERIS_TYPE": 0, "CLASSIFICATION_TYPE": "U", "NORAD_CAT_ID": 29776, "ELEMENT_SET_NO": 999, "REV_AT_EPOCH": 97162, "BSTAR": 0.00019726477, "MEAN_MOTION_DOT": 2.92e-06, "MEAN_MOTION_DDOT": 0}, "tle": {"line1": "1 29776U 99025BS  25352.59389941  .00000292  00000+0  19726-3 0  9991", "line2": "2 29776  98.7706  19.1787 0022863 253.5993 231.8310 14.07778995971620"}}, "geometry": {"type": "Point", "coordinates": [-154.68876552896725, 30.892547252355207]}}, {"type": "Feature", "properties": {"norad_id": 29777, "name": "FENGYUN 1C DEB", "group": "fengyun-1c-debris", "lat": 3.3262892752778557, "lon": -129.13336871463986, "alt_km": 858.0935268578651, "timestamp": "2025-12-19T10:50:01.472228+00:00", "meta": {"OBJECT_NAME": "FENGYUN 1C DEB", "OBJECT_ID": "1999-025BT", "EPOCH": "2025-12-18T17:19:38.075808", "MEAN_MOTION": 13.92107034, "ECCENTRICITY": 0.00929492, "INCLINATION": 99.2828, "RA_OF_ASC_NODE": 49.5918, "ARG_OF_PERICENTER": 193.5298, "MEAN_ANOMALY": 289.592, "EPHEMERIS_TYPE": 0, "CLASSIFICATION_TYPE": "U", "NORAD_CAT_ID": 29777, "ELEMENT_SET_NO": 999, "REV_AT_EPOCH": 96124, "BSTAR": 3.8396643e-05, "MEAN_MOTION_DOT": 6e-08, "MEAN_MOTION_DDOT": 0}, "tle": {"line1": "1 29777U 99025BT  25352.72196847  .00000006  00000+0  38397-4 0  9997", "line2": "2 29777  99.2828  49.5918 0092949 193.5298 289.5920 13.92107034961245"}}, "geometry": {"type": "Point", "coordinates": [-129.13336871463986, 3.3262892752778557]}}, {"type": "Feature", "properties": {"norad_id": 29779, "name": "FENGYUN 1C DEB", "group": "fengyun-1c-debris", "lat": -66.60419165726658, "lon": 25.15505499043421, "alt_km": 893.2470455346665, "timestamp": "2025-12-19T10:50:01.472239+00:00", "meta": {"OBJECT_NAME": "FENGYUN 1C DEB", "OBJECT_ID": "1999-025BV", "EPOCH": "2025-12-18T23:16:01.926336", "MEAN_MOTION": 14.13448228, "ECCENTRICITY": 0.00637808, "INCLINATION": 98.6769, "RA_OF_ASC_NODE": 4.0196, "ARG_OF_PERICENTER": 146.5262, "MEAN_ANOMALY": 213.9967, "EPHEMERIS_TYPE": 0, "CLASSIFICATION_TYPE": "U", "NORAD_CAT_ID": 29779, "ELEMENT_SET_NO": 999, "REV_AT_EPOCH": 97500, "BSTAR": 0.00019719423, "MEAN_MOTION_DOT": 3.36e-06, "MEAN_MOTION_DDOT": 0}, "tle": {"line1": "1 29779U 99025BV  25352.96946674  .00000336  00000+0  19719-3 0  9998", "line2": "2 29779  98.6769   4.0196 0063780 146.5262 213.9967 14.13448228975006"}}, "geometry": {"type": "Point", "coordinates": [25.15505499043421, -66.60419165726658]}}, {"type": "Feature", "properties": {"norad_id": 29780, "name": "FENGYUN 1C DEB", "group": "fengyun-1c-debris", "lat": -60.93111551512684, "lon": 77.6110704794531, "alt_km": 849.1494201888163, "timestamp": "2025-12-19T10:50:01.472249+00:00", "meta": {"OBJECT_NAME": "FENGYUN 1C DEB", "OBJECT_ID": "1999-025BW", "EPOCH": "2025-12-18T06:39:50.785632", "MEAN_MOTION": 14.21077876, "ECCENTRICITY": 0.00411349, "INCLINATION": 99.2784, "RA_OF_ASC_NODE": 273.4814, "ARG_OF_PERICENTER": 112.0101, "MEAN_ANOMALY": 248.5452, "EPHEMERIS_TYPE": 0, "CLASSIFICATION_TYPE": "U", "NORAD_CAT_ID": 29780, "ELEMENT_SET_NO": 999, "REV_AT_EPOCH": 97157, "BSTAR": 0.0013811668, "MEAN_MOTION_DOT": 2.977e-05, "MEAN_MOTION_DDOT": 0}, "tle": {"line1": "1 29780U 99025BW  25352.27767113  .00002977  00000+0  13812-2 0  9993", "line2": "2 29780  99.2784 273.4814 0041134 112.0101 248.5452 14.21077876971577"}}, "geometry": {"type": "Point", "coordinates": [77.6110704794531, -60.93111551512684]}}, {"type": "Feature", "properties": {"norad_id": 29781, "name": "FENGYUN 1C DEB", "group": "fengyun-1c-debris", "lat": 9.12817472526248, "lon": 168.8431550967639, "alt_km": 827.0585335565002, "timestamp": "2025-12-19T10:50:01.472259+00:00", "meta": {"OBJECT_NAME": "FENGYUN 1C DEB", "OBJECT_ID": "1999-025BX", "EPOCH": "2025-12-18T22:22:34.069728", "MEAN_MOTION": 14.05241033, "ECCENTRICITY": 0.00721347, "INCLINATION": 98.8097, "RA_OF_ASC_NODE": 346.9111, "ARG_OF_PERICENTER": 155.8316, "MEAN_ANOMALY": 270.1476, "EPHEMERIS_TYPE": 0, "CLASSIFICATION_TYPE": "U", "NORAD_CAT_ID": 29781, "ELEMENT_SET_NO": 999, "REV_AT_EPOCH": 96730, "BSTAR": 0.00073143185, "MEAN_MOTION_DOT": 1.168e-05, "MEAN_MOTION_DDOT": 0}, "tle": {"line1": "1 29781U 99025BX  25352.93233877  .00001168  00000+0  73143-3 0  9997", "line2": "2 29781  98.8097 346.9111 0072134 155.8316 270.1476 14.05241033967306"}}, "geometry": {"type": "Point", "coordinates": [168.8431550967639, 9.12817472526248]}}]}